MALLIGYONG-1            
1 58400U 23179A   24069.18031479  .00006181  00000+0  27884-3 0  9990
2 58400  97.4188 317.5217 0007856 249.4208 110.6185 15.21339923 16510
